#aV2021 11 20  0  0  0.00000000     288 DD+AD WGS84 FIT  NGA
## 2184 518400.00000000   300.00000000 59538 0.0000000000000
+   32     1  2  3  4  5  6  7  8  9 10 11 12 13 14 15 16 17
+         18 19 20 21 22 23 24 25 26 27 28 29 30 31 32  0  0
+          0  0  0  0  0  0  0  0  0  0  0  0  0  0  0  0  0
+          0  0  0  0  0  0  0  0  0  0  0  0  0  0  0  0  0
+          0  0  0  0  0  0  0  0  0  0  0  0  0  0  0  0  0
++         2  2  2  2  2  2  2  2  2  2  2  2  2  2  2  2  2
++         2  2  2  2  2  2  2  2  2  2  2  2  2  2  2  0  0
++         0  0  0  0  0  0  0  0  0  0  0  0  0  0  0  0  0
++         0  0  0  0  0  0  0  0  0  0  0  0  0  0  0  0  0
++         0  0  0  0  0  0  0  0  0  0  0  0  0  0  0  0  0
%c cc cc ccc ccc cccc cccc cccc cccc ccccc ccccc ccccc ccccc
%c cc cc ccc ccc cccc cccc cccc cccc ccccc ccccc ccccc ccccc
%f  0.0000000  0.000000000  0.00000000000  0.000000000000000
%f  0.0000000  0.000000000  0.00000000000  0.000000000000000
%i    0    0    0    0      0      0      0      0         0
%i    0    0    0    0      0      0      0      0         0
/*      NGA, ST. LOUIS,MO.                                  
/*   EPHEMERIS COMPUTED FROM 2 DAYS OF DATA                 
/*   EPOCHA v7 SMOOTHER                                     
/*   G2139 IERS2010 SATIGS SATAPC                           
*  2021 11 20  4 50  0.00000000
P  1  13347.226393  -8069.856957  21163.584833    505.988360                    
V  1   3111.737255  27350.019171   8684.385359     -0.104375                    
P  2 -13946.751587 -15206.320565 -16016.012814   -642.705491                    
V  2  -1726.453752 -21631.591921  21269.196647     -0.015044                    
P  3  22952.801658 -12206.443106   5071.075192    -18.081018                    
V  3  -3883.087955   5880.640495  31184.128210     -0.099546                    
P  4  20480.685151  -2910.778378 -16699.608034   -201.417808                    
V  4  18201.000365  10974.485247  20334.767204      0.009436                    
P  5 -20341.204835    423.587793 -17318.052588    -61.665702                    
V  5  16056.284739 -14566.928416 -19251.296047     -0.012859                    
P  6  -5771.010009 -25386.519630  -5031.934984    122.204238                    
V  6   1401.570806  -6631.172112  31492.044582      0.093132                    
P  7   6577.365107 -22270.667368 -12056.935575    280.454477                    
V  7   4505.627019  15752.844347 -26334.169202      0.052127                    
P  8  25160.842750   5332.855488   7267.462342    -44.871129                    
V  8   7521.752201   5693.937203 -29848.212267     -0.015229                    
P  9  10313.012135 -12078.737565 -21365.596397   -361.569656                    
V  9  24574.235028  11147.769095   5549.869501      0.003416                    
P 10  -4206.572991  18608.981966  18476.174928   -250.102831                    
V 10 -19742.756233  12434.203248 -17418.971955     -0.085676                    
P 11 -11950.089213 -17453.511863 -16081.155714     18.463493                    
V 11   1035.421902 -20457.529172  21426.962967     -0.019570                    
P 12 -23810.737874   9546.030798   6351.632401   -128.917286                    
V 12   5848.482828  -6559.710804  30697.387041     -0.055606                    
P 13 -23077.838181 -13218.620340   1468.954947    217.247070                    
V 13   -423.927071  -3172.378179 -31738.673946      0.057063                    
P 14   5152.527427 -18709.845363  18106.466738    -41.415474                    
V 14  20177.203524 -11237.012758 -17408.066951     -0.067627                    
P 15 -25553.600492  -2471.827387   7042.502702   -105.170392                    
V 15  -7980.757645  -6063.438485 -29083.030222      0.028125                    
P 16  18662.433702   3994.217596 -18911.936968   -427.131046                    
V 16 -19582.946372  12667.074431 -16423.934998     -0.064338                    
P 17  -3565.741108 -17269.775485  20295.618926    536.179441                    
V 17  22271.008018  10837.706807  13451.077399      0.053952                    
P 18  -6121.662757  23079.957877 -11529.277731    292.843572                    
V 18  -3349.455203 -14435.721873 -27228.685453     -0.059851                    
P 19 -12449.950401 -18479.582173  14320.269777     81.573244                    
V 19  16824.112711   7959.029855  24284.182862      0.049981                    
P 20 -13043.330296  -8989.254233 -21316.994304    518.035431                    
V 20  19032.882217 -19333.148168  -3757.657951     -0.001911                    
P 21  15930.922083   1719.477079  21933.146434    151.520494                    
V 21   4434.198299  25805.621800  -4845.685966      0.011050                    
P 22  22084.115985  -6841.222071  13057.605474   -460.617461                    
V 22 -10328.091826  13126.644933  24875.034881      0.090605                    
P 23 -14763.604764  19717.367088   9802.460626     30.941858                    
V 23 -11424.356094   5620.261476 -28533.436325     -0.043737                    
P 24 -15257.946121   3477.515122  21171.301626    268.750505                    
V 24  -5072.297887 -27186.807069   1208.643259      0.036329                    
P 25 -19658.772680  17326.009889  -3563.376794    243.335454                    
V 25  -5218.425431     14.394957  31466.153945      0.058990                    
P 26   7429.834953  14012.297654 -21346.198408    157.092406                    
V 26 -21496.342936  16445.730726   3618.967947      0.037603                    
P 27  23432.696652  12671.772120  -2793.955648   -221.336557                    
V 27  -3833.504175    515.987050 -31539.606626     -0.046337                    
P 28  -2001.125304 -16009.875915  21674.725513    459.339336                    
V 28  22822.064246 -12862.794655  -7376.332396     -0.075755                    
P 29 -14597.527054   7854.355523 -20806.358193   -443.022449                    
V 29 -22720.706364 -13170.243194  10927.251034     -0.051966                    
P 30   -207.344902 -26305.108550  -2487.885368   -492.829509                    
V 30   4013.426680   2971.720511 -31151.052359     -0.031652                    
P 31   7121.122458  24229.234491  -7509.141199   -151.037841                    
V 31  -2446.785041   9727.027029  29965.170768     -0.019101                    
P 32   8584.872487  17707.239089  18039.375737    -24.243419                    
V 32 -21287.089724  -7787.237053  17708.162598     -0.048697                    
EOF
